[{"OBJECT_NAME":"STARLINK-2481","OBJECT_ID":"2021-027AY","EPOCH":"2025-09-05T06:37:21.101952","MEAN_MOTION":15.06395686,"ECCENTRICITY":0.00010619,"INCLINATION":53.0557,"RA_OF_ASC_NODE":283.9743,"ARG_OF_PERICENTER":79.452,"MEAN_ANOMALY":280.6588,"EPHEMERIS_TYPE":0,"CLASSIFICATION_TYPE":"U","NORAD_CAT_ID":48138,"ELEMENT_SET_NO":999,"REV_AT_EPOCH":24447,"BSTAR":0.00011458092,"MEAN_MOTION_DOT":1.426e-5,"MEAN_MOTION_DDOT":0},{"OBJECT_NAME":"STARLINK-2482","OBJECT_ID":"2021-027AZ","EPOCH":"2025-09-05T06:24:04.563072","MEAN_MOTION":15.0639143,"ECCENTRICITY":0.00015865,"INCLINATION":53.0532,"RA_OF_ASC_NODE":264.0138,"ARG_OF_PERICENTER":98.3216,"MEAN_ANOMALY":261.7953,"EPHEMERIS_TYPE":0,"CLASSIFICATION_TYPE":"U","NORAD_CAT_ID":48139,"ELEMENT_SET_NO":999,"REV_AT_EPOCH":24475,"BSTAR":-5.185157e-5,"MEAN_MOTION_DOT":-1.054e-5,"MEAN_MOTION_DDOT":0},{"OBJECT_NAME":"STARLINK-2483","OBJECT_ID":"2021-027BA","EPOCH":"2025-09-05T06:53:23.192736","MEAN_MOTION":15.06391641,"ECCENTRICITY":0.00013274,"INCLINATION":53.0545,"RA_OF_ASC_NODE":284.4798,"ARG_OF_PERICENTER":100.8162,"MEAN_ANOMALY":259.2977,"EPHEMERIS_TYPE":0,"CLASSIFICATION_TYPE":"U","NORAD_CAT_ID":48140,"ELEMENT_SET_NO":999,"REV_AT_EPOCH":24446,"BSTAR":6.6304135e-5,"MEAN_MOTION_DOT":7.06e-6,"MEAN_MOTION_DDOT":0},{"OBJECT_NAME":"STARLINK-2485","OBJECT_ID":"2021-027BC","EPOCH":"2025-09-05T06:18:46.396800","MEAN_MOTION":15.06390785,"ECCENTRICITY":0.00012008,"INCLINATION":53.0534,"RA_OF_ASC_NODE":264.0356,"ARG_OF_PERICENTER":81.7397,"MEAN_ANOMALY":278.3728,"EPHEMERIS_TYPE":0,"CLASSIFICATION_TYPE":"U","NORAD_CAT_ID":48142,"ELEMENT_SET_NO":999,"REV_AT_EPOCH":24475,"BSTAR":-4.3498929e-5,"MEAN_MOTION_DOT":-9.29e-6,"MEAN_MOTION_DDOT":0},{"OBJECT_NAME":"STARLINK-2486","OBJECT_ID":"2021-027BD","EPOCH":"2025-09-05T04:30:38.890368","MEAN_MOTION":15.06391847,"ECCENTRICITY":0.00014698,"INCLINATION":53.0527,"RA_OF_ASC_NODE":219.4684,"ARG_OF_PERICENTER":96.5149,"MEAN_ANOMALY":263.6007,"EPHEMERIS_TYPE":0,"CLASSIFICATION_TYPE":"U","NORAD_CAT_ID":48143,"ELEMENT_SET_NO":999,"REV_AT_EPOCH":24536,"BSTAR":2.0779278e-5,"MEAN_MOTION_DOT":2.8e-7,"MEAN_MOTION_DDOT":0},{"OBJECT_NAME":"STARLINK-2487","OBJECT_ID":"2021-027BE","EPOCH":"2025-09-05T06:29:23.261568","MEAN_MOTION":15.06395402,"ECCENTRICITY":0.00013192,"INCLINATION":53.0545,"RA_OF_ASC_NODE":264.0025,"ARG_OF_PERICENTER":84.7142,"MEAN_ANOMALY":275.3998,"EPHEMERIS_TYPE":0,"CLASSIFICATION_TYPE":"U","NORAD_CAT_ID":48144,"ELEMENT_SET_NO":999,"REV_AT_EPOCH":24474,"BSTAR":-1.734181e-6,"MEAN_MOTION_DOT":-3.07e-6,"MEAN_MOTION_DDOT":0},{"OBJECT_NAME":"STARLINK-2488","OBJECT_ID":"2021-027BF","EPOCH":"2025-09-05T06:34:41.424384","MEAN_MOTION":15.0639416,"ECCENTRICITY":0.000116,"INCLINATION":53.0533,"RA_OF_ASC_NODE":263.9844,"ARG_OF_PERICENTER":85.3343,"MEAN_ANOMALY":274.7779,"EPHEMERIS_TYPE":0,"CLASSIFICATION_TYPE":"U","NORAD_CAT_ID":48145,"ELEMENT_SET_NO":999,"REV_AT_EPOCH":24475,"BSTAR":-7.3274832e-5,"MEAN_MOTION_DOT":-1.372e-5,"MEAN_MOTION_DDOT":0},{"OBJECT_NAME":"STARLINK-2491","OBJECT_ID":"2021-027BJ","EPOCH":"2025-09-05T05:44:18.153600","MEAN_MOTION":15.06403981,"ECCENTRICITY":8.909e-5,"INCLINATION":53.0527,"RA_OF_ASC_NODE":284.144,"ARG_OF_PERICENTER":95.3392,"MEAN_ANOMALY":264.7699,"EPHEMERIS_TYPE":0,"CLASSIFICATION_TYPE":"U","NORAD_CAT_ID":48148,"ELEMENT_SET_NO":999,"REV_AT_EPOCH":24445,"BSTAR":0.0004922366,"MEAN_MOTION_DOT":7.059e-5,"MEAN_MOTION_DDOT":0},{"OBJECT_NAME":"STARLINK-2492","OBJECT_ID":"2021-027BK","EPOCH":"2025-09-05T06:02:51.411552","MEAN_MOTION":15.06402396,"ECCENTRICITY":0.0001053,"INCLINATION":53.0523,"RA_OF_ASC_NODE":264.0835,"ARG_OF_PERICENTER":92.193,"MEAN_ANOMALY":267.918,"EPHEMERIS_TYPE":0,"CLASSIFICATION_TYPE":"U","NORAD_CAT_ID":48149,"ELEMENT_SET_NO":999,"REV_AT_EPOCH":24474,"BSTAR":-1.0049e-8,"MEAN_MOTION_DOT":-2.81e-6,"MEAN_MOTION_DDOT":0},{"OBJECT_NAME":"STARLINK-2493","OBJECT_ID":"2021-027BL","EPOCH":"2025-09-05T06:08:09.221856","MEAN_MOTION":15.06392729,"ECCENTRICITY":0.00013525,"INCLINATION":53.0544,"RA_OF_ASC_NODE":264.0679,"ARG_OF_PERICENTER":76.5761,"MEAN_ANOMALY":283.5379,"EPHEMERIS_TYPE":0,"CLASSIFICATION_TYPE":"U","NORAD_CAT_ID":48150,"ELEMENT_SET_NO":999,"REV_AT_EPOCH":24475,"BSTAR":-4.019006e-5,"MEAN_MOTION_DOT":-8.8e-6,"MEAN_MOTION_DDOT":0},{"OBJECT_NAME":"STARLINK-2503","OBJECT_ID":"2021-027BM","EPOCH":"2025-09-05T06:13:27.910848","MEAN_MOTION":15.06392714,"ECCENTRICITY":0.00011469,"INCLINATION":53.0547,"RA_OF_ASC_NODE":264.0477,"ARG_OF_PERICENTER":81.7259,"MEAN_ANOMALY":278.386,"EPHEMERIS_TYPE":0,"CLASSIFICATION_TYPE":"U","NORAD_CAT_ID":48151,"ELEMENT_SET_NO":999,"REV_AT_EPOCH":24475,"BSTAR":7.322067e-6,"MEAN_MOTION_DOT":-1.72e-6,"MEAN_MOTION_DDOT":0},{"OBJECT_NAME":"STARLINK-2567","OBJECT_ID":"2021-036A","EPOCH":"2025-09-05T00:50:22.322976","MEAN_MOTION":15.06383864,"ECCENTRICITY":0.0001519,"INCLINATION":53.0556,"RA_OF_ASC_NODE":160.056,"ARG_OF_PERICENTER":107.1937,"MEAN_ANOMALY":252.9218,"EPHEMERIS_TYPE":0,"CLASSIFICATION_TYPE":"U","NORAD_CAT_ID":48276,"ELEMENT_SET_NO":999,"REV_AT_EPOCH":24082,"BSTAR":1.4539754e-5,"MEAN_MOTION_DOT":-6.5e-7,"MEAN_MOTION_DDOT":0},{"OBJECT_NAME":"STARLINK-2569","OBJECT_ID":"2021-036B","EPOCH":"2025-09-04T23:16:49.194048","MEAN_MOTION":15.06390852,"ECCENTRICITY":0.00013575,"INCLINATION":53.0546,"RA_OF_ASC_NODE":125.3506,"ARG_OF_PERICENTER":94.2824,"MEAN_ANOMALY":265.832,"EPHEMERIS_TYPE":0,"CLASSIFICATION_TYPE":"U","NORAD_CAT_ID":48277,"ELEMENT_SET_NO":999,"REV_AT_EPOCH":24130,"BSTAR":-3.8134149e-5,"MEAN_MOTION_DOT":-8.49e-6,"MEAN_MOTION_DDOT":0},{"OBJECT_NAME":"STARLINK-2543","OBJECT_ID":"2021-036C","EPOCH":"2025-09-05T00:10:33.997152","MEAN_MOTION":15.06404182,"ECCENTRICITY":0.00012151,"INCLINATION":53.0546,"RA_OF_ASC_NODE":140.2661,"ARG_OF_PERICENTER":98.8654,"MEAN_ANOMALY":261.2473,"EPHEMERIS_TYPE":0,"CLASSIFICATION_TYPE":"U","NORAD_CAT_ID":48278,"ELEMENT_SET_NO":999,"REV_AT_EPOCH":24109,"BSTAR":0.00025870229,"MEAN_MOTION_DOT":3.574e-5,"MEAN_MOTION_DDOT":0},{"OBJECT_NAME":"STARLINK-2565","OBJECT_ID":"2021-036E","EPOCH":"2025-09-05T04:37:17.628960","MEAN_MOTION":15.06386138,"ECCENTRICITY":0.00012559,"INCLINATION":53.0525,"RA_OF_ASC_NODE":209.3464,"ARG_OF_PERICENTER":100.1029,"MEAN_ANOMALY":260.0102,"EPHEMERIS_TYPE":0,"CLASSIFICATION_TYPE":"U","NORAD_CAT_ID":48280,"ELEMENT_SET_NO":999,"REV_AT_EPOCH":24014,"BSTAR":0.00073684282,"MEAN_MOTION_DOT":0.00010707,"MEAN_MOTION_DDOT":0},{"OBJECT_NAME":"STARLINK-2558","OBJECT_ID":"2021-036G","EPOCH":"2025-09-05T03:54:09.281952","MEAN_MOTION":15.06389643,"ECCENTRICITY":0.00014268,"INCLINATION":53.0554,"RA_OF_ASC_NODE":194.4823,"ARG_OF_PERICENTER":99.4764,"MEAN_ANOMALY":260.6387,"EPHEMERIS_TYPE":0,"CLASSIFICATION_TYPE":"U","NORAD_CAT_ID":48282,"ELEMENT_SET_NO":999,"REV_AT_EPOCH":24035,"BSTAR":2.4810398e-5,"MEAN_MOTION_DOT":8.8e-7,"MEAN_MOTION_DDOT":0}]
