STARLINK-2481           
1 48138U 21027AY  25248.27593868  .00001426  00000+0  11458-3 0  9999
2 48138  53.0557 283.9743 0001061  79.4520 280.6588 15.06395686244479
STARLINK-2482           
1 48139U 21027AZ  25248.26671948 -.00001054  00000+0 -51852-4 0  9997
2 48139  53.0532 264.0138 0001586  98.3216 261.7953 15.06391430244755
STARLINK-2483           
1 48140U 21027BA  25248.28707399  .00000706  00000+0  66304-4 0  9990
2 48140  53.0545 284.4798 0001327 100.8162 259.2977 15.06391641244461
STARLINK-2485           
1 48142U 21027BC  25248.26303700 -.00000929  00000+0 -43499-4 0  9997
2 48142  53.0534 264.0356 0001200  81.7397 278.3728 15.06390785244758
STARLINK-2486           
1 48143U 21027BD  25248.18795012  .00000028  00000+0  20779-4 0  9994
2 48143  53.0527 219.4684 0001469  96.5149 263.6007 15.06391847245360
STARLINK-2487           
1 48144U 21027BE  25248.27040812 -.00000307  00000+0 -17342-5 0  9991
2 48144  53.0545 264.0025 0001319  84.7142 275.3998 15.06395402244743
STARLINK-2488           
1 48145U 21027BF  25248.27409056 -.00001372  00000+0 -73275-4 0  9990
2 48145  53.0533 263.9844 0001160  85.3343 274.7779 15.06394160244753
STARLINK-2491           
1 48148U 21027BJ  25248.23909900  .00007059  00000+0  49224-3 0  9994
2 48148  53.0527 284.1440 0000890  95.3392 264.7699 15.06403981244459
STARLINK-2492           
1 48149U 21027BK  25248.25198393 -.00000281  00000+0 -10049-7 0  9992
2 48149  53.0523 264.0835 0001053  92.1930 267.9180 15.06402396244747
STARLINK-2493           
1 48150U 21027BL  25248.25566229 -.00000880  00000+0 -40190-4 0  9993
2 48150  53.0544 264.0679 0001352  76.5761 283.5379 15.06392729244751
STARLINK-2503           
1 48151U 21027BM  25248.25935082 -.00000172  00000+0  73221-5 0  9996
2 48151  53.0547 264.0477 0001146  81.7259 278.3860 15.06392714244753
STARLINK-2567           
1 48276U 21036A   25248.03498059 -.00000065  00000+0  14540-4 0  9997
2 48276  53.0556 160.0560 0001519 107.1937 252.9218 15.06383864240824
STARLINK-2569           
1 48277U 21036B   25247.97001382 -.00000849  00000+0 -38134-4 0  9995
2 48277  53.0546 125.3506 0001357  94.2824 265.8320 15.06390852241305
STARLINK-2543           
1 48278U 21036C   25248.00733793  .00003574  00000+0  25870-3 0  9997
2 48278  53.0546 140.2661 0001215  98.8654 261.2473 15.06404182241095
STARLINK-2565           
1 48280U 21036E   25248.19256515  .00010707  00000+0  73684-3 0  9994
2 48280  53.0525 209.3464 0001255 100.1029 260.0102 15.06386138240141
STARLINK-2558           
1 48282U 21036G   25248.16260743  .00000088  00000+0  24810-4 0  9990
2 48282  53.0554 194.4823 0001426  99.4764 260.6387 15.06389643240352
